[
    {
        "Altitude(m)": 705913.182216771,
        "Argument of Periapsis(deg)": 0.0034170363559881197,
        "Eccentricity": 0.0,
        "Inclination(deg)": 45.0,
        "Latitude(deg)": 38.76775111106239,
        "Longitude(deg)": -158.22431071038454,
        "Mean Anomaly(deg)": 118.00546499424428,
        "RAAN(deg)": 174.99677441756256,
        "Satellite Name": "Constellation 1 777",
        "Satellite Number": 777,
        "Semi-Major Axis(m)": 7083131.272910544,
        "Time(s)": 57
    },
    {
        "Altitude(m)": 705907.7665019942,
        "Argument of Periapsis(deg)": 0.003476984362233526,
        "Eccentricity": 0.0,
        "Inclination(deg)": 45.0,
        "Latitude(deg)": 38.74182319618201,
        "Longitude(deg)": -158.15811726306728,
        "Mean Anomaly(deg)": 118.06616613449415,
        "RAAN(deg)": 174.99671782839698,
        "Satellite Name": "Constellation 1 777",
        "Satellite Number": 777,
        "Semi-Major Axis(m)": 7083131.272910544,
        "Time(s)": 58
    },
    {
        "Altitude(m)": 705902.3445401603,
        "Argument of Periapsis(deg)": 0.003536932368478932,
        "Eccentricity": 0.0,
        "Inclination(deg)": 45.0,
        "Latitude(deg)": 38.715852931201766,
        "Longitude(deg)": -158.09197481329045,
        "Mean Anomaly(deg)": 118.12686727474403,
        "RAAN(deg)": 174.9966612392314,
        "Satellite Name": "Constellation 1 777",
        "Satellite Number": 777,
        "Semi-Major Axis(m)": 7083131.272910544,
        "Time(s)": 59
    },
    {
        "Altitude(m)": 705896.9163645625,
        "Argument of Periapsis(deg)": 0.003596880374724337,
        "Eccentricity": 0.0,
        "Inclination(deg)": 45.0,
        "Latitude(deg)": 38.689840385204064,
        "Longitude(deg)": -158.02588302355068,
        "Mean Anomaly(deg)": 118.187568414994,
        "RAAN(deg)": 174.99660465006582,
        "Satellite Name": "Constellation 1 777",
        "Satellite Number": 777,
        "Semi-Major Axis(m)": 7083131.272910544,
        "Time(s)": 60
    },
    {
        "Altitude(m)": 705891.4820085237,
        "Argument of Periapsis(deg)": 0.0036568283809697427,
        "Eccentricity": 0.0,
        "Inclination(deg)": 45.0,
        "Latitude(deg)": 38.66378562725097,
        "Longitude(deg)": -157.95984206025494,
        "Mean Anomaly(deg)": 118.24826955524384,
        "RAAN(deg)": 174.99654806090027,
        "Satellite Name": "Constellation 1 777",
        "Satellite Number": 777,
        "Semi-Major Axis(m)": 7083131.272910544,
        "Time(s)": 61
    },
    {
        "Altitude(m)": 705886.0415054207,
        "Argument of Periapsis(deg)": 0.003716776387215149,
        "Eccentricity": 0.0,
        "Inclination(deg)": 45.0,
        "Latitude(deg)": 38.63768872638204,
        "Longitude(deg)": -157.89385192133196,
        "Mean Anomaly(deg)": 118.30897069549377,
        "RAAN(deg)": 174.99649147173471,
        "Satellite Name": "Constellation 1 777",
        "Satellite Number": 777,
        "Semi-Major Axis(m)": 7083131.272910544,
        "Time(s)": 62
    },
    {
        "Altitude(m)": 705880.5948886804,
        "Argument of Periapsis(deg)": 0.003776724393460554,
        "Eccentricity": 0.0,
        "Inclination(deg)": 45.0,
        "Latitude(deg)": 38.611549751614554,
        "Longitude(deg)": -157.82791260433257,
        "Mean Anomaly(deg)": 118.36967183574363,
        "RAAN(deg)": 174.99643488256913,
        "Satellite Name": "Constellation 1 777",
        "Satellite Number": 777,
        "Semi-Major Axis(m)": 7083131.272910544,
        "Time(s)": 63
    },
    {
        "Altitude(m)": 705875.1421917656,
        "Argument of Periapsis(deg)": 0.003836672399705959,
        "Eccentricity": 0.0,
        "Inclination(deg)": 45.0,
        "Latitude(deg)": 38.585368771942825,
        "Longitude(deg)": -157.76202410642995,
        "Mean Anomaly(deg)": 118.4303729759935,
        "RAAN(deg)": 174.99637829340355,
        "Satellite Name": "Constellation 1 777",
        "Satellite Number": 777,
        "Semi-Major Axis(m)": 7083131.272910544,
        "Time(s)": 64
    },
    {
        "Altitude(m)": 705869.6834481927,
        "Argument of Periapsis(deg)": 0.003896620405951365,
        "Eccentricity": 0.0,
        "Inclination(deg)": 45.0,
        "Latitude(deg)": 38.55914585633765,
        "Longitude(deg)": -157.69618642442143,
        "Mean Anomaly(deg)": 118.49107411624347,
        "RAAN(deg)": 174.996321704238,
        "Satellite Name": "Constellation 1 777",
        "Satellite Number": 777,
        "Semi-Major Axis(m)": 7083131.272910544,
        "Time(s)": 65
    },
    {
        "Altitude(m)": 705864.2186915142,
        "Argument of Periapsis(deg)": 0.003956568412196771,
        "Eccentricity": 0.0,
        "Inclination(deg)": 45.0,
        "Latitude(deg)": 38.53288107374619,
        "Longitude(deg)": -157.63039955473033,
        "Mean Anomaly(deg)": 118.55177525649331,
        "RAAN(deg)": 174.99626511507242,
        "Satellite Name": "Constellation 1 777",
        "Satellite Number": 777,
        "Semi-Major Axis(m)": 7083131.272910544,
        "Time(s)": 66
    },
    {
        "Altitude(m)": 705858.747955337,
        "Argument of Periapsis(deg)": 0.004016516418442176,
        "Eccentricity": 0.0,
        "Inclination(deg)": 45.0,
        "Latitude(deg)": 38.506574493091286,
        "Longitude(deg)": -157.5646636615037,
        "Mean Anomaly(deg)": 118.6124763967433,
        "RAAN(deg)": 174.99620852590687,
        "Satellite Name": "Constellation 1 777",
        "Satellite Number": 777,
        "Semi-Major Axis(m)": 7083131.272910544,
        "Time(s)": 67
    },
    {
        "Altitude(m)": 705853.2712733082,
        "Argument of Periapsis(deg)": 0.004076464424687581,
        "Eccentricity": 0.0,
        "Inclination(deg)": 45.0,
        "Latitude(deg)": 38.48022618327022,
        "Longitude(deg)": -157.4989784042265,
        "Mean Anomaly(deg)": 118.67317753699317,
        "RAAN(deg)": 174.99615193674126,
        "Satellite Name": "Constellation 1 777",
        "Satellite Number": 777,
        "Semi-Major Axis(m)": 7083131.272910544,
        "Time(s)": 68
    },
    {
        "Altitude(m)": 705847.7886791232,
        "Argument of Periapsis(deg)": 0.004136412430932987,
        "Eccentricity": 0.0,
        "Inclination(deg)": 45.0,
        "Latitude(deg)": 38.453836213155746,
        "Longitude(deg)": -157.4333439463044,
        "Mean Anomaly(deg)": 118.73387867724306,
        "RAAN(deg)": 174.9960953475757,
        "Satellite Name": "Constellation 1 777",
        "Satellite Number": 777,
        "Semi-Major Axis(m)": 7083131.272910544,
        "Time(s)": 69
    },
    {
        "Altitude(m)": 705842.300206512,
        "Argument of Periapsis(deg)": 0.004196360437178394,
        "Eccentricity": 0.0,
        "Inclination(deg)": 45.0,
        "Latitude(deg)": 38.42740465159466,
        "Longitude(deg)": -157.3677602826778,
        "Mean Anomaly(deg)": 118.79457981749295,
        "RAAN(deg)": 174.99603875841015,
        "Satellite Name": "Constellation 1 777",
        "Satellite Number": 777,
        "Semi-Major Axis(m)": 7083131.272910544,
        "Time(s)": 70
    },
    {
        "Altitude(m)": 705836.8058892593,
        "Argument of Periapsis(deg)": 0.004256308443423799,
        "Eccentricity": 0.0,
        "Inclination(deg)": 45.0,
        "Latitude(deg)": 38.40093156740735,
        "Longitude(deg)": -157.30222740791973,
        "Mean Anomaly(deg)": 118.85528095774286,
        "RAAN(deg)": 174.99598216924457,
        "Satellite Name": "Constellation 1 777",
        "Satellite Number": 777,
        "Semi-Major Axis(m)": 7083131.272910544,
        "Time(s)": 71
    },
    {
        "Altitude(m)": 705831.3057611929,
        "Argument of Periapsis(deg)": 0.004316256449669204,
        "Eccentricity": 0.0,
        "Inclination(deg)": 45.0,
        "Latitude(deg)": 38.37441702938768,
        "Longitude(deg)": -157.23674531623777,
        "Mean Anomaly(deg)": 118.91598209799272,
        "RAAN(deg)": 174.99592558007902,
        "Satellite Name": "Constellation 1 777",
        "Satellite Number": 777,
        "Semi-Major Axis(m)": 7083131.272910544,
        "Time(s)": 72
    },
    {
        "Altitude(m)": 705825.7998561789,
        "Argument of Periapsis(deg)": 0.00437620445591461,
        "Eccentricity": 0.0,
        "Inclination(deg)": 45.0,
        "Latitude(deg)": 38.347861106302254,
        "Longitude(deg)": -157.17131400147537,
        "Mean Anomaly(deg)": 118.97668323824263,
        "RAAN(deg)": 174.99586899091344,
        "Satellite Name": "Constellation 1 777",
        "Satellite Number": 777,
        "Semi-Major Axis(m)": 7083131.272910544,
        "Time(s)": 73
    },
    {
        "Altitude(m)": 705820.2882081392,
        "Argument of Periapsis(deg)": 0.004436152462160016,
        "Eccentricity": 0.0,
        "Inclination(deg)": 45.0,
        "Latitude(deg)": 38.321263866890376,
        "Longitude(deg)": -157.1059336252103,
        "Mean Anomaly(deg)": 119.03738437849253,
        "RAAN(deg)": 174.99581240174786,
        "Satellite Name": "Constellation 1 777",
        "Satellite Number": 777,
        "Semi-Major Axis(m)": 7083131.272910544,
        "Time(s)": 74
    },
    {
        "Altitude(m)": 705814.7708510207,
        "Argument of Periapsis(deg)": 0.0044961004684054215,
        "Eccentricity": 0.0,
        "Inclination(deg)": 45.0,
        "Latitude(deg)": 38.29462537986233,
        "Longitude(deg)": -157.04060384436787,
        "Mean Anomaly(deg)": 119.09808551874247,
        "RAAN(deg)": 174.9957558125823,
        "Satellite Name": "Constellation 1 777",
        "Satellite Number": 777,
        "Semi-Major Axis(m)": 7083131.272910544,
        "Time(s)": 75
    }
]